{"type": "FeatureCollection", "features": [ {"type": "Feature", "properties": {"norad_id": 34732, "name": "COSMOS 2251 DEB", "group": "cosmos-2251-debris", "lat": 54.51702051733743, "lon": -94.44049213127023, "alt_km": 750.9441765692609, "timestamp": "2025-12-04T03:47:54.937093+00:00", "meta": {"OBJECT_NAME": "COSMOS 2251 DEB", "OBJECT_ID": "1993-036ZA", "EPOCH": "2025-12-03T15:43:00.145920", "MEAN_MOTION": 14.47282993, "ECCENTRICITY": 0.0040494, "INCLINATION": 74.0445, "RA_OF_ASC_NODE": 110.1617, "ARG_OF_PERICENTER": 262.8442, "MEAN_ANOMALY": 117.6975, "EPHEMERIS_TYPE": 0, "CLASSIFICATION_TYPE": "U", "NORAD_CAT_ID": 34732, "ELEMENT_SET_NO": 999, "REV_AT_EPOCH": 88012, "BSTAR": 0.00023845, "MEAN_MOTION_DOT": 8.53e-06, "MEAN_MOTION_DDOT": 0}, "tle": {"line1": "1 34732U 93036ZA  25337.65486280  .00000853  00000+0  23845-3 0  9999", "line2": "2 34732  74.0445 110.1617 0040494 262.8442 117.6975 14.47282993880125"}}, "geometry": {"type": "Point", "coordinates": [-94.44049213127023, 54.51702051733743]}}, {"type": "Feature", "properties": {"norad_id": 34736, "name": "COSMOS 2251 DEB", "group": "cosmos-2251-debris", "lat": 21.223097969989684, "lon": -131.48207401033423, "alt_km": 456.93648627127095, "timestamp": "2025-12-04T03:47:54.937104+00:00", "meta": {"OBJECT_NAME": "COSMOS 2251 DEB", "OBJECT_ID": "1993-036ZE", "EPOCH": "2025-12-03T16:11:50.972064", "MEAN_MOTION": 15.39194494, "ECCENTRICITY": 0.0015242, "INCLINATION": 74.0049, "RA_OF_ASC_NODE": 55.9589, "ARG_OF_PERICENTER": 354.5498, "MEAN_ANOMALY": 5.554, "EPHEMERIS_TYPE": 0, "CLASSIFICATION_TYPE": "U", "NORAD_CAT_ID": 34736, "ELEMENT_SET_NO": 999, "REV_AT_EPOCH": 88308, "BSTAR": 0.01049, "MEAN_MOTION_DOT": 0.00432972, "MEAN_MOTION_DDOT": 0}, "tle": {"line1": "1 34736U 93036ZE  25337.67489551  .00432972  00000+0  10490-1 0  9990", "line2": "2 34736  74.0049  55.9589 0015242 354.5498   5.5540 15.39194494883087"}}, "geometry": {"type": "Point", "coordinates": [-131.48207401033423, 21.223097969989684]}}, {"type": "Feature", "properties": {"norad_id": 34738, "name": "COSMOS 2251 DEB", "group": "cosmos-2251-debris", "lat": -5.087886073763283, "lon": -19.232997744908, "alt_km": 758.7813758855173, "timestamp": "2025-12-04T03:47:54.937114+00:00", "meta": {"OBJECT_NAME": "COSMOS 2251 DEB", "OBJECT_ID": "1993-036ZG", "EPOCH": "2025-12-03T18:41:36.096864", "MEAN_MOTION": 14.4626769, "ECCENTRICITY": 0.004714, "INCLINATION": 74.0141, "RA_OF_ASC_NODE": 160.0133, "ARG_OF_PERICENTER": 307.9655, "MEAN_ANOMALY": 63.1798, "EPHEMERIS_TYPE": 0, "CLASSIFICATION_TYPE": "U", "NORAD_CAT_ID": 34738, "ELEMENT_SET_NO": 999, "REV_AT_EPOCH": 87729, "BSTAR": 0.00042005, "MEAN_MOTION_DOT": 1.497e-05, "MEAN_MOTION_DDOT": 0}, "tle": {"line1": "1 34738U 93036ZG  25337.77889001  .00001497  00000+0  42005-3 0  9990", "line2": "2 34738  74.0141 160.0133 0047140 307.9655  63.1798 14.46267690877291"}}, "geometry": {"type": "Point", "coordinates": [-19.232997744908, -5.087886073763283]}}, {"type": "Feature", "properties": {"norad_id": 34750, "name": "COSMOS 2251 DEB", "group": "cosmos-2251-debris", "lat": -58.062727438064854, "lon": 65.28200790743533, "alt_km": 685.5257116070325, "timestamp": "2025-12-04T03:47:54.937124+00:00", "meta": {"OBJECT_NAME": "COSMOS 2251 DEB", "OBJECT_ID": "1993-036ZU", "EPOCH": "2025-12-03T09:10:04.253088", "MEAN_MOTION": 14.61168137, "ECCENTRICITY": 0.0039303, "INCLINATION": 74.1086, "RA_OF_ASC_NODE": 219.5638, "ARG_OF_PERICENTER": 175.784, "MEAN_ANOMALY": 303.9488, "EPHEMERIS_TYPE": 0, "CLASSIFICATION_TYPE": "U", "NORAD_CAT_ID": 34750, "ELEMENT_SET_NO": 999, "REV_AT_EPOCH": 88094, "BSTAR": 0.0014193, "MEAN_MOTION_DOT": 7.042e-05, "MEAN_MOTION_DDOT": 0}, "tle": {"line1": "1 34750U 93036ZU  25337.38199367  .00007042  00000+0  14193-2 0  9998", "line2": "2 34750  74.1086 219.5638 0039303 175.7840 303.9488 14.61168137880943"}}, "geometry": {"type": "Point", "coordinates": [65.28200790743533, -58.062727438064854]}}, {"type": "Feature", "properties": {"norad_id": 34752, "name": "COSMOS 2251 DEB", "group": "cosmos-2251-debris", "lat": -73.57990651694556, "lon": -58.53016030038621, "alt_km": 593.928219680718, "timestamp": "2025-12-04T03:47:54.937134+00:00", "meta": {"OBJECT_NAME": "COSMOS 2251 DEB", "OBJECT_ID": "1993-036ZW", "EPOCH": "2025-12-03T04:10:08.232096", "MEAN_MOTION": 14.99566625, "ECCENTRICITY": 0.0048429, "INCLINATION": 74.0143, "RA_OF_ASC_NODE": 20.0691, "ARG_OF_PERICENTER": 151.748, "MEAN_ANOMALY": 208.635, "EPHEMERIS_TYPE": 0, "CLASSIFICATION_TYPE": "U", "NORAD_CAT_ID": 34752, "ELEMENT_SET_NO": 999, "REV_AT_EPOCH": 89706, "BSTAR": 0.0011618, "MEAN_MOTION_DOT": 0.00014635, "MEAN_MOTION_DDOT": 0}, "tle": {"line1": "1 34752U 93036ZW  25337.17370639  .00014635  00000+0  11618-2 0  9995", "line2": "2 34752  74.0143  20.0691 0048429 151.7480 208.6350 14.99566625897060"}}, "geometry": {"type": "Point", "coordinates": [-58.53016030038621, -73.57990651694556]}}, {"type": "Feature", "properties": {"norad_id": 34754, "name": "COSMOS 2251 DEB", "group": "cosmos-2251-debris", "lat": -72.48529610807527, "lon": 178.33124764385929, "alt_km": 761.7088477000643, "timestamp": "2025-12-04T03:47:54.937144+00:00", "meta": {"OBJECT_NAME": "COSMOS 2251 DEB", "OBJECT_ID": "1993-036ZY", "EPOCH": "2025-12-03T13:28:24.266208", "MEAN_MOTION": 14.40459071, "ECCENTRICITY": 0.0029171, "INCLINATION": 74.0309, "RA_OF_ASC_NODE": 244.5788, "ARG_OF_PERICENTER": 2.5764, "MEAN_ANOMALY": 61.0609, "EPHEMERIS_TYPE": 0, "CLASSIFICATION_TYPE": "U", "NORAD_CAT_ID": 34754, "ELEMENT_SET_NO": 999, "REV_AT_EPOCH": 88001, "BSTAR": 0.00033516, "MEAN_MOTION_DOT": 1.044e-05, "MEAN_MOTION_DDOT": 0}, "tle": {"line1": "1 34754U 93036ZY  25337.56139197  .00001044  00000+0  33516-3 0  9994", "line2": "2 34754  74.0309 244.5788 0029171   2.5764  61.0609 14.40459071880014"}}, "geometry": {"type": "Point", "coordinates": [178.33124764385929, -72.48529610807527]}}, {"type": "Feature", "properties": {"norad_id": 34755, "name": "COSMOS 2251 DEB", "group": "cosmos-2251-debris", "lat": -71.94315856089113, "lon": -118.35403193110162, "alt_km": 862.6888796528247, "timestamp": "2025-12-04T03:47:54.937154+00:00", "meta": {"OBJECT_NAME": "COSMOS 2251 DEB", "OBJECT_ID": "1993-036ZZ", "EPOCH": "2025-11-28T15:26:25.154880", "MEAN_MOTION": 13.50483978, "ECCENTRICITY": 0.04082229, "INCLINATION": 73.9254, "RA_OF_ASC_NODE": 312.682, "ARG_OF_PERICENTER": 334.9897, "MEAN_ANOMALY": 144.2013, "EPHEMERIS_TYPE": 0, "CLASSIFICATION_TYPE": "U", "NORAD_CAT_ID": 34755, "ELEMENT_SET_NO": 999, "REV_AT_EPOCH": 82333, "BSTAR": 0.001766679, "MEAN_MOTION_DOT": 1.881e-05, "MEAN_MOTION_DDOT": 0}, "tle": {"line1": "1 34755U 93036ZZ  25332.64334670  .00001881  00000+0  17667-2 0  9999", "line2": "2 34755  73.9254 312.6820 0408222 334.9897 144.2013 13.50483978823331"}}, "geometry": {"type": "Point", "coordinates": [-118.35403193110162, -71.94315856089113]}}, {"type": "Feature", "properties": {"norad_id": 34756, "name": "COSMOS 2251 DEB", "group": "cosmos-2251-debris", "lat": 33.450034580451984, "lon": 129.4064929071564, "alt_km": 805.5873239529074, "timestamp": "2025-12-04T03:47:54.937164+00:00", "meta": {"OBJECT_NAME": "COSMOS 2251 DEB", "OBJECT_ID": "1993-036AAA", "EPOCH": "2025-12-02T16:31:05.981088", "MEAN_MOTION": 13.67210106, "ECCENTRICITY": 0.0344553, "INCLINATION": 74.0021, "RA_OF_ASC_NODE": 120.8981, "ARG_OF_PERICENTER": 358.9057, "MEAN_ANOMALY": 1.1264, "EPHEMERIS_TYPE": 0, "CLASSIFICATION_TYPE": "U", "NORAD_CAT_ID": 34756, "ELEMENT_SET_NO": 999, "REV_AT_EPOCH": 83284, "BSTAR": 0.0010550911, "MEAN_MOTION_DOT": 1.312e-05, "MEAN_MOTION_DDOT": 0}, "tle": {"line1": "1 34756U 93036AAA 25336.68826367  .00001312  00000+0  10551-2 0  9991", "line2": "2 34756  74.0021 120.8981 0344553 358.9057   1.1264 13.67210106832847"}}, "geometry": {"type": "Point", "coordinates": [129.4064929071564, 33.450034580451984]}}, {"type": "Feature", "properties": {"norad_id": 34758, "name": "COSMOS 2251 DEB", "group": "cosmos-2251-debris", "lat": 62.89584364577419, "lon": -12.869329898474003, "alt_km": 758.9236688687424, "timestamp": "2025-12-04T03:47:54.937175+00:00", "meta": {"OBJECT_NAME": "COSMOS 2251 DEB", "OBJECT_ID": "1993-036AAC", "EPOCH": "2025-12-02T23:11:46.563360", "MEAN_MOTION": 13.58027856, "ECCENTRICITY": 0.03806607, "INCLINATION": 74.1072, "RA_OF_ASC_NODE": 315.2248, "ARG_OF_PERICENTER": 81.3008, "MEAN_ANOMALY": 283.1017, "EPHEMERIS_TYPE": 0, "CLASSIFICATION_TYPE": "U", "NORAD_CAT_ID": 34758, "ELEMENT_SET_NO": 999, "REV_AT_EPOCH": 82777, "BSTAR": 0.0012020965, "MEAN_MOTION_DOT": 1.376e-05, "MEAN_MOTION_DDOT": 0}, "tle": {"line1": "1 34758U 93036AAC 25336.96651115  .00001376  00000+0  12021-2 0  9995", "line2": "2 34758  74.1072 315.2248 0380660  81.3008 283.1017 13.58027856827776"}}, "geometry": {"type": "Point", "coordinates": [-12.869329898474003, 62.89584364577419]}}, {"type": "Feature", "properties": {"norad_id": 34760, "name": "COSMOS 2251 DEB", "group": "cosmos-2251-debris", "lat": -38.249246157468484, "lon": 150.69286492302018, "alt_km": 893.9736724980103, "timestamp": "2025-12-04T03:47:54.937184+00:00", "meta": {"OBJECT_NAME": "COSMOS 2251 DEB", "OBJECT_ID": "1993-036AAE", "EPOCH": "2025-12-02T15:48:08.179200", "MEAN_MOTION": 14.19524364, "ECCENTRICITY": 0.00962533, "INCLINATION": 74.0627, "RA_OF_ASC_NODE": 320.3503, "ARG_OF_PERICENTER": 14.8263, "MEAN_ANOMALY": 104.0636, "EPHEMERIS_TYPE": 0, "CLASSIFICATION_TYPE": "U", "NORAD_CAT_ID": 34760, "ELEMENT_SET_NO": 999, "REV_AT_EPOCH": 86545, "BSTAR": 0.00087310198, "MEAN_MOTION_DOT": 1.903e-05, "MEAN_MOTION_DDOT": 0}, "tle": {"line1": "1 34760U 93036AAE 25336.65842800  .00001903  00000+0  87310-3 0  9997", "line2": "2 34760  74.0627 320.3503 0096253  14.8263 104.0636 14.19524364865450"}}, "geometry": {"type": "Point", "coordinates": [150.69286492302018, -38.249246157468484]}}]}